[{"OBJECT_NAME":"OBJECT D","OBJECT_ID":"2024-174D","EPOCH":"2026-03-10T00:15:10.483200","MEAN_MOTION":15.28039787,"ECCENTRICITY":0.00110644,"INCLINATION":97.4441,"RA_OF_ASC_NODE":80.4677,"ARG_OF_PERICENTER":212.9968,"MEAN_ANOMALY":147.0582,"EPHEMERIS_TYPE":0,"CLASSIFICATION_TYPE":"U","NORAD_CAT_ID":61241,"ELEMENT_SET_NO":999,"REV_AT_EPOCH":8076,"BSTAR":0.00036340099,"MEAN_MOTION_DOT":9.884e-5,"MEAN_MOTION_DDOT":0},{"OBJECT_NAME":"STARLINK-32869","OBJECT_ID":"2025-022F","EPOCH":"2026-03-09T10:31:35.933376","MEAN_MOTION":15.30199869,"ECCENTRICITY":0.00014333,"INCLINATION":53.1593,"RA_OF_ASC_NODE":130.6268,"ARG_OF_PERICENTER":88.6744,"MEAN_ANOMALY":271.4421,"EPHEMERIS_TYPE":0,"CLASSIFICATION_TYPE":"U","NORAD_CAT_ID":62859,"ELEMENT_SET_NO":999,"REV_AT_EPOCH":6186,"BSTAR":0.0011405944,"MEAN_MOTION_DOT":0.00033575,"MEAN_MOTION_DDOT":0}]
